[{"OBJECT_NAME":"STARLINK-5683","OBJECT_ID":"2023-015D","EPOCH":"2026-03-09T23:29:53.706048","MEAN_MOTION":15.02533908,"ECCENTRICITY":9.584e-5,"INCLINATION":43.0043,"RA_OF_ASC_NODE":324.7523,"ARG_OF_PERICENTER":271.655,"MEAN_ANOMALY":88.4182,"EPHEMERIS_TYPE":0,"CLASSIFICATION_TYPE":"U","NORAD_CAT_ID":55452,"ELEMENT_SET_NO":999,"REV_AT_EPOCH":17079,"BSTAR":-4.2001786e-5,"MEAN_MOTION_DOT":-7.71e-6,"MEAN_MOTION_DDOT":0},{"OBJECT_NAME":"DIAMANT DEB","OBJECT_ID":"1967-014F","EPOCH":"2026-03-08T22:12:40.817952","MEAN_MOTION":14.36285339,"ECCENTRICITY":0.034388,"INCLINATION":38.9293,"RA_OF_ASC_NODE":272.8082,"ARG_OF_PERICENTER":97.8602,"MEAN_ANOMALY":266.1323,"EPHEMERIS_TYPE":0,"CLASSIFICATION_TYPE":"U","NORAD_CAT_ID":2685,"ELEMENT_SET_NO":999,"REV_AT_EPOCH":95305,"BSTAR":0.0015965488,"MEAN_MOTION_DOT":9.263e-5,"MEAN_MOTION_DDOT":0}]
